{"fetched_at":"2026-07-18T17:29:55.985Z","source":"https://celestrak.org/NORAD/elements/gp.php?NAME=HAWK&FORMAT=JSON","constellation":"hawkeye-360","records":[{"OBJECT_NAME":"HAWK-A","OBJECT_ID":"2018-099H","EPOCH":"2026-07-18T03:00:50.115456","CLASSIFICATION_TYPE":"U","MEAN_MOTION":15.24986598,"ECCENTRICITY":0.00350351,"INCLINATION":97.3892,"RA_OF_ASC_NODE":250.962,"ARG_OF_PERICENTER":173.738,"MEAN_ANOMALY":186.4303,"EPHEMERIS_TYPE":0,"NORAD_CAT_ID":43765,"ELEMENT_SET_NO":999,"REV_AT_EPOCH":41781,"BSTAR":0.00014155455,"MEAN_MOTION_DOT":0.00003517,"MEAN_MOTION_DDOT":0},{"OBJECT_NAME":"HAWK-B","OBJECT_ID":"2018-099AN","EPOCH":"2026-07-18T02:50:47.776128","CLASSIFICATION_TYPE":"U","MEAN_MOTION":15.23134334,"ECCENTRICITY":0.00316758,"INCLINATION":97.3942,"RA_OF_ASC_NODE":250.3049,"ARG_OF_PERICENTER":191.7187,"MEAN_ANOMALY":168.3317,"EPHEMERIS_TYPE":0,"NORAD_CAT_ID":43794,"ELEMENT_SET_NO":999,"REV_AT_EPOCH":41774,"BSTAR":0.00013135867,"MEAN_MOTION_DOT":0.00003071,"MEAN_MOTION_DDOT":0},{"OBJECT_NAME":"HAWK-C","OBJECT_ID":"2018-099AT","EPOCH":"2026-07-18T07:02:20.943744","CLASSIFICATION_TYPE":"U","MEAN_MOTION":15.28519507,"ECCENTRICITY":0.00406161,"INCLINATION":97.3868,"RA_OF_ASC_NODE":252.1947,"ARG_OF_PERICENTER":172.9032,"MEAN_ANOMALY":187.2792,"EPHEMERIS_TYPE":0,"NORAD_CAT_ID":43799,"ELEMENT_SET_NO":999,"REV_AT_EPOCH":41866,"BSTAR":0.00016274986,"MEAN_MOTION_DOT":0.00004549,"MEAN_MOTION_DDOT":0},{"OBJECT_NAME":"HAWK-2C","OBJECT_ID":"2021-006CT","EPOCH":"2026-07-18T02:52:57.732960","CLASSIFICATION_TYPE":"U","MEAN_MOTION":15.35010089,"ECCENTRICITY":0.00086841,"INCLINATION":97.2259,"RA_OF_ASC_NODE":242.8173,"ARG_OF_PERICENTER":92.6255,"MEAN_ANOMALY":267.5983,"EPHEMERIS_TYPE":0,"NORAD_CAT_ID":47502,"ELEMENT_SET_NO":999,"REV_AT_EPOCH":30424,"BSTAR":0.00010315882,"MEAN_MOTION_DOT":0.00003429,"MEAN_MOTION_DDOT":0},{"OBJECT_NAME":"HAWK-2A","OBJECT_ID":"2021-006CW","EPOCH":"2026-07-18T02:56:06.357120","CLASSIFICATION_TYPE":"U","MEAN_MOTION":15.35032145,"ECCENTRICITY":0.00082203,"INCLINATION":97.2301,"RA_OF_ASC_NODE":243.5152,"ARG_OF_PERICENTER":95.9424,"MEAN_ANOMALY":264.2757,"EPHEMERIS_TYPE":0,"NORAD_CAT_ID":47505,"ELEMENT_SET_NO":999,"REV_AT_EPOCH":30424,"BSTAR":0.0001184648,"MEAN_MOTION_DOT":0.00003951,"MEAN_MOTION_DDOT":0},{"OBJECT_NAME":"HAWK-2B","OBJECT_ID":"2021-006CZ","EPOCH":"2026-07-18T02:46:25.803552","CLASSIFICATION_TYPE":"U","MEAN_MOTION":15.35160219,"ECCENTRICITY":0.00087672,"INCLINATION":97.2172,"RA_OF_ASC_NODE":241.792,"ARG_OF_PERICENTER":94.2359,"MEAN_ANOMALY":265.9887,"EPHEMERIS_TYPE":0,"NORAD_CAT_ID":47508,"ELEMENT_SET_NO":999,"REV_AT_EPOCH":30424,"BSTAR":0.00011799673,"MEAN_MOTION_DOT":0.00003952,"MEAN_MOTION_DDOT":0},{"OBJECT_NAME":"HAWK-3B","OBJECT_ID":"2021-059BE","EPOCH":"2026-07-18T02:12:39.565440","CLASSIFICATION_TYPE":"U","MEAN_MOTION":15.72043913,"ECCENTRICITY":0.00047312,"INCLINATION":97.6632,"RA_OF_ASC_NODE":38.7819,"ARG_OF_PERICENTER":187.5925,"MEAN_ANOMALY":172.5267,"EPHEMERIS_TYPE":0,"NORAD_CAT_ID":48931,"ELEMENT_SET_NO":999,"REV_AT_EPOCH":28270,"BSTAR":0.00023995635,"MEAN_MOTION_DOT":0.00031299,"MEAN_MOTION_DDOT":0},{"OBJECT_NAME":"HAWK-3C","OBJECT_ID":"2021-059BX","EPOCH":"2026-07-18T02:12:11.990016","CLASSIFICATION_TYPE":"U","MEAN_MOTION":15.7204379,"ECCENTRICITY":0.00050371,"INCLINATION":97.6749,"RA_OF_ASC_NODE":44.52,"ARG_OF_PERICENTER":187.829,"MEAN_ANOMALY":172.2895,"EPHEMERIS_TYPE":0,"NORAD_CAT_ID":48948,"ELEMENT_SET_NO":999,"REV_AT_EPOCH":28270,"BSTAR":0.00022506655,"MEAN_MOTION_DOT":0.00029344,"MEAN_MOTION_DDOT":0},{"OBJECT_NAME":"HAWK-3A","OBJECT_ID":"2021-059CG","EPOCH":"2026-07-18T02:12:02.373696","CLASSIFICATION_TYPE":"U","MEAN_MOTION":15.72042965,"ECCENTRICITY":0.00049271,"INCLINATION":97.6693,"RA_OF_ASC_NODE":41.6998,"ARG_OF_PERICENTER":190.029,"MEAN_ANOMALY":170.0875,"EPHEMERIS_TYPE":0,"NORAD_CAT_ID":48957,"ELEMENT_SET_NO":999,"REV_AT_EPOCH":28270,"BSTAR":0.00023283719,"MEAN_MOTION_DOT":0.00030363,"MEAN_MOTION_DDOT":0},{"OBJECT_NAME":"HAWK-5C","OBJECT_ID":"2022-057Y","EPOCH":"2026-07-18T04:29:27.039264","CLASSIFICATION_TYPE":"U","MEAN_MOTION":15.52390365,"ECCENTRICITY":0.00025017,"INCLINATION":97.6626,"RA_OF_ASC_NODE":0.8827,"ARG_OF_PERICENTER":332.5417,"MEAN_ANOMALY":27.5703,"EPHEMERIS_TYPE":0,"NORAD_CAT_ID":52754,"ELEMENT_SET_NO":999,"REV_AT_EPOCH":23115,"BSTAR":0.00017410015,"MEAN_MOTION_DOT":0.00010517,"MEAN_MOTION_DDOT":0},{"OBJECT_NAME":"HAWK-5B","OBJECT_ID":"2022-057AA","EPOCH":"2026-07-18T02:56:22.442208","CLASSIFICATION_TYPE":"U","MEAN_MOTION":15.52385437,"ECCENTRICITY":0.0003199,"INCLINATION":97.6638,"RA_OF_ASC_NODE":359.168,"ARG_OF_PERICENTER":318.5187,"MEAN_ANOMALY":41.5822,"EPHEMERIS_TYPE":0,"NORAD_CAT_ID":52756,"ELEMENT_SET_NO":999,"REV_AT_EPOCH":23114,"BSTAR":0.00017264586,"MEAN_MOTION_DOT":0.00010427,"MEAN_MOTION_DDOT":0},{"OBJECT_NAME":"HAWK-5A","OBJECT_ID":"2022-057AB","EPOCH":"2026-07-18T04:28:54.360192","CLASSIFICATION_TYPE":"U","MEAN_MOTION":15.52389197,"ECCENTRICITY":0.00030536,"INCLINATION":97.6633,"RA_OF_ASC_NODE":0.0668,"ARG_OF_PERICENTER":324.1521,"MEAN_ANOMALY":35.9525,"EPHEMERIS_TYPE":0,"NORAD_CAT_ID":52757,"ELEMENT_SET_NO":999,"REV_AT_EPOCH":23115,"BSTAR":0.00017538043,"MEAN_MOTION_DOT":0.00010595,"MEAN_MOTION_DDOT":0},{"OBJECT_NAME":"HAWK-6B","OBJECT_ID":"2023-011A","EPOCH":"2026-07-17T22:27:23.310144","CLASSIFICATION_TYPE":"U","MEAN_MOTION":15.23169163,"ECCENTRICITY":0.00044723,"INCLINATION":40.4976,"RA_OF_ASC_NODE":172.689,"ARG_OF_PERICENTER":254.5549,"MEAN_ANOMALY":105.4766,"EPHEMERIS_TYPE":0,"NORAD_CAT_ID":55324,"ELEMENT_SET_NO":999,"REV_AT_EPOCH":19253,"BSTAR":0.00011460971,"MEAN_MOTION_DOT":0.0000257,"MEAN_MOTION_DDOT":0},{"OBJECT_NAME":"HAWK-6C","OBJECT_ID":"2023-011C","EPOCH":"2026-07-18T06:18:33.108480","CLASSIFICATION_TYPE":"U","MEAN_MOTION":15.23170261,"ECCENTRICITY":0.00049743,"INCLINATION":40.4967,"RA_OF_ASC_NODE":167.6154,"ARG_OF_PERICENTER":250.3835,"MEAN_ANOMALY":109.6437,"EPHEMERIS_TYPE":0,"NORAD_CAT_ID":55326,"ELEMENT_SET_NO":999,"REV_AT_EPOCH":19259,"BSTAR":0.00010019816,"MEAN_MOTION_DOT":0.00002222,"MEAN_MOTION_DDOT":0},{"OBJECT_NAME":"HAWK-6A","OBJECT_ID":"2023-011D","EPOCH":"2026-07-18T04:44:11.491872","CLASSIFICATION_TYPE":"U","MEAN_MOTION":15.23169943,"ECCENTRICITY":0.00046206,"INCLINATION":40.4977,"RA_OF_ASC_NODE":169.6247,"ARG_OF_PERICENTER":247.0466,"MEAN_ANOMALY":112.9856,"EPHEMERIS_TYPE":0,"NORAD_CAT_ID":55327,"ELEMENT_SET_NO":999,"REV_AT_EPOCH":19258,"BSTAR":0.00010414425,"MEAN_MOTION_DOT":0.00002317,"MEAN_MOTION_DDOT":0},{"OBJECT_NAME":"HAWK-7A","OBJECT_ID":"2023-054P","EPOCH":"2026-07-18T03:52:05.725632","CLASSIFICATION_TYPE":"U","MEAN_MOTION":15.27650536,"ECCENTRICITY":0.00011481,"INCLINATION":97.2655,"RA_OF_ASC_NODE":85.7107,"ARG_OF_PERICENTER":314.4527,"MEAN_ANOMALY":45.6619,"EPHEMERIS_TYPE":0,"NORAD_CAT_ID":56191,"ELEMENT_SET_NO":999,"REV_AT_EPOCH":18175,"BSTAR":0.0001091729,"MEAN_MOTION_DOT":0.00002878,"MEAN_MOTION_DDOT":0}]}
